IRIDIUM 124             
1 42810U 17039H   26061.76845057  .00000493  00000+0  14052-3 0  9992
2 42810  86.4540 334.8661 0002123  83.8454 276.2988 14.43267568459764
IRIDIUM 128             
1 42811U 17039J   26061.53308627  .00000037  00000+0  61778-5 0  9998
2 42811  86.3906  69.7406 0002040  95.1208 265.0221 14.34217622454691
IRIDIUM 121             
1 42812U 17039K   26061.63114514  .00000008  00000+0 -42133-5 0  9993
2 42812  86.3959  38.1887 0002102  90.3560 269.7876 14.34217463454555
IRIDIUM 133             
1 42955U 17061A   26061.56479941 -.00000013  00000+0 -11857-4 0  9991
2 42955  86.3911  69.8428 0002033  90.7476 269.3953 14.34217238439494
IRIDIUM 100             
1 42956U 17061B   26061.55845626 -.00000003  00000+0 -82275-5 0  9990
2 42956  86.3908  69.7665 0002068  90.5317 269.6116 14.34217355439497
IRIDIUM 122             
1 42957U 17061C   26061.52674140  .00000084  00000+0  22857-4 0  9995
2 42957  86.3906  69.7795 0002156  88.1412 272.0030 14.34217757439496
IRIDIUM 129             
1 42958U 17061D   26061.55211492  .00000068  00000+0  17093-4 0  9994
2 42958  86.3909  69.8349 0002566  87.7337 272.4152 14.34217958439517
IRIDIUM 119             
1 42959U 17061E   26061.52040130  .00000017  00000+0 -82892-6 0  9997
2 42959  86.3911  69.8436 0002160  85.8073 274.3370 14.34217654439521
IRIDIUM 107             
1 42960U 17061F   26061.53942828  .00000014  00000+0 -19690-5 0  9997
2 42960  86.3909  69.8562 0001830  85.3117 274.8288 14.34217601439533
IRIDIUM 132             
1 42961U 17061G   26061.54577075  .00000101  00000+0  29130-4 0  9992
2 42961  86.3910  69.8337 0002115  90.0196 270.1242 14.34217887439538
IRIDIUM 136             
1 42962U 17061H   26061.50771599  .00000045  00000+0  88853-5 0  9991
2 42962  86.3908  69.8557 0002201  87.5555 272.5893 14.34217920439543
IRIDIUM 139             
1 42963U 17061J   26061.51405856  .00000020  00000+0  13466-6 0  9995
2 42963  86.3911  69.9134 0001996  90.7028 269.4397 14.34217654439550
IRIDIUM 125             
1 42964U 17061K   26061.57114129  .00000069  00000+0  17466-4 0  9997
2 42964  86.3911  69.9487 0002087  75.0053 285.1374 14.34217967439577
IRIDIUM 135             
1 43070U 17083A   26061.75457873  .00000352  00000+0  11879-3 0  9992
2 43070  86.4016   6.4889 0002183  85.9933 274.1513 14.34217226428893
IRIDIUM 138             
1 43071U 17083B   26061.77994439  .00000036  00000+0  59257-5 0  9992
2 43071  86.4028   6.1576 0002411  77.7543 282.3923 14.34217846428880
IRIDIUM 116             
1 43072U 17083C   26061.81799958  .00000047  00000+0  97197-5 0  9994
2 43072  86.4013   6.4495 0002035  94.1374 266.0054 14.34217814428929
IRIDIUM 130             
1 43073U 17083D   26061.78628563  .00000183  00000+0  58173-4 0  9995
2 43073  86.4020   6.7277 0001911  88.0373 272.1042 14.34218370428868
