[{"OBJECT_NAME":"IRIDIUM 124","OBJECT_ID":"2017-039H","EPOCH":"2026-03-02T18:26:34.129248","MEAN_MOTION":14.43267568,"ECCENTRICITY":0.0002123,"INCLINATION":86.454,"RA_OF_ASC_NODE":334.8661,"ARG_OF_PERICENTER":83.8454,"MEAN_ANOMALY":276.2988,"EPHEMERIS_TYPE":0,"CLASSIFICATION_TYPE":"U","NORAD_CAT_ID":42810,"ELEMENT_SET_NO":999,"REV_AT_EPOCH":45976,"BSTAR":0.00014052,"MEAN_MOTION_DOT":4.93e-6,"MEAN_MOTION_DDOT":0},{"OBJECT_NAME":"IRIDIUM 128","OBJECT_ID":"2017-039J","EPOCH":"2026-03-02T12:47:38.653728","MEAN_MOTION":14.34217622,"ECCENTRICITY":0.000204,"INCLINATION":86.3906,"RA_OF_ASC_NODE":69.7406,"ARG_OF_PERICENTER":95.1208,"MEAN_ANOMALY":265.0221,"EPHEMERIS_TYPE":0,"CLASSIFICATION_TYPE":"U","NORAD_CAT_ID":42811,"ELEMENT_SET_NO":999,"REV_AT_EPOCH":45469,"BSTAR":6.1778e-6,"MEAN_MOTION_DOT":3.7e-7,"MEAN_MOTION_DDOT":0},{"OBJECT_NAME":"IRIDIUM 121","OBJECT_ID":"2017-039K","EPOCH":"2026-03-02T15:08:50.940096","MEAN_MOTION":14.34217463,"ECCENTRICITY":0.0002102,"INCLINATION":86.3959,"RA_OF_ASC_NODE":38.1887,"ARG_OF_PERICENTER":90.356,"MEAN_ANOMALY":269.7876,"EPHEMERIS_TYPE":0,"CLASSIFICATION_TYPE":"U","NORAD_CAT_ID":42812,"ELEMENT_SET_NO":999,"REV_AT_EPOCH":45455,"BSTAR":-4.2133e-6,"MEAN_MOTION_DOT":8.0e-8,"MEAN_MOTION_DDOT":0},{"OBJECT_NAME":"IRIDIUM 133","OBJECT_ID":"2017-061A","EPOCH":"2026-03-02T13:33:18.669024","MEAN_MOTION":14.34217238,"ECCENTRICITY":0.0002033,"INCLINATION":86.3911,"RA_OF_ASC_NODE":69.8428,"ARG_OF_PERICENTER":90.7476,"MEAN_ANOMALY":269.3953,"EPHEMERIS_TYPE":0,"CLASSIFICATION_TYPE":"U","NORAD_CAT_ID":42955,"ELEMENT_SET_NO":999,"REV_AT_EPOCH":43949,"BSTAR":-1.1857e-5,"MEAN_MOTION_DOT":-1.3e-7,"MEAN_MOTION_DDOT":0},{"OBJECT_NAME":"IRIDIUM 100","OBJECT_ID":"2017-061B","EPOCH":"2026-03-02T13:24:10.620864","MEAN_MOTION":14.34217355,"ECCENTRICITY":0.0002068,"INCLINATION":86.3908,"RA_OF_ASC_NODE":69.7665,"ARG_OF_PERICENTER":90.5317,"MEAN_ANOMALY":269.6116,"EPHEMERIS_TYPE":0,"CLASSIFICATION_TYPE":"U","NORAD_CAT_ID":42956,"ELEMENT_SET_NO":999,"REV_AT_EPOCH":43949,"BSTAR":-8.2275e-6,"MEAN_MOTION_DOT":-3.0e-8,"MEAN_MOTION_DDOT":0},{"OBJECT_NAME":"IRIDIUM 122","OBJECT_ID":"2017-061C","EPOCH":"2026-03-02T12:38:30.456960","MEAN_MOTION":14.34217757,"ECCENTRICITY":0.0002156,"INCLINATION":86.3906,"RA_OF_ASC_NODE":69.7795,"ARG_OF_PERICENTER":88.1412,"MEAN_ANOMALY":272.003,"EPHEMERIS_TYPE":0,"CLASSIFICATION_TYPE":"U","NORAD_CAT_ID":42957,"ELEMENT_SET_NO":999,"REV_AT_EPOCH":43949,"BSTAR":2.2857e-5,"MEAN_MOTION_DOT":8.4e-7,"MEAN_MOTION_DDOT":0},{"OBJECT_NAME":"IRIDIUM 129","OBJECT_ID":"2017-061D","EPOCH":"2026-03-02T13:15:02.729088","MEAN_MOTION":14.34217958,"ECCENTRICITY":0.0002566,"INCLINATION":86.3909,"RA_OF_ASC_NODE":69.8349,"ARG_OF_PERICENTER":87.7337,"MEAN_ANOMALY":272.4152,"EPHEMERIS_TYPE":0,"CLASSIFICATION_TYPE":"U","NORAD_CAT_ID":42958,"ELEMENT_SET_NO":999,"REV_AT_EPOCH":43951,"BSTAR":1.7093e-5,"MEAN_MOTION_DOT":6.8e-7,"MEAN_MOTION_DDOT":0},{"OBJECT_NAME":"IRIDIUM 119","OBJECT_ID":"2017-061E","EPOCH":"2026-03-02T12:29:22.672320","MEAN_MOTION":14.34217654,"ECCENTRICITY":0.00021605,"INCLINATION":86.3911,"RA_OF_ASC_NODE":69.8436,"ARG_OF_PERICENTER":85.8073,"MEAN_ANOMALY":274.337,"EPHEMERIS_TYPE":0,"CLASSIFICATION_TYPE":"U","NORAD_CAT_ID":42959,"ELEMENT_SET_NO":999,"REV_AT_EPOCH":43952,"BSTAR":-8.28922e-7,"MEAN_MOTION_DOT":1.7e-7,"MEAN_MOTION_DDOT":0},{"OBJECT_NAME":"IRIDIUM 107","OBJECT_ID":"2017-061F","EPOCH":"2026-03-02T12:56:46.603392","MEAN_MOTION":14.34217601,"ECCENTRICITY":0.000183,"INCLINATION":86.3909,"RA_OF_ASC_NODE":69.8562,"ARG_OF_PERICENTER":85.3117,"MEAN_ANOMALY":274.8288,"EPHEMERIS_TYPE":0,"CLASSIFICATION_TYPE":"U","NORAD_CAT_ID":42960,"ELEMENT_SET_NO":999,"REV_AT_EPOCH":43953,"BSTAR":-1.969e-6,"MEAN_MOTION_DOT":1.4e-7,"MEAN_MOTION_DDOT":0},{"OBJECT_NAME":"IRIDIUM 132","OBJECT_ID":"2017-061G","EPOCH":"2026-03-02T13:05:54.592800","MEAN_MOTION":14.34217887,"ECCENTRICITY":0.0002115,"INCLINATION":86.391,"RA_OF_ASC_NODE":69.8337,"ARG_OF_PERICENTER":90.0196,"MEAN_ANOMALY":270.1242,"EPHEMERIS_TYPE":0,"CLASSIFICATION_TYPE":"U","NORAD_CAT_ID":42961,"ELEMENT_SET_NO":999,"REV_AT_EPOCH":43953,"BSTAR":2.913e-5,"MEAN_MOTION_DOT":1.01e-6,"MEAN_MOTION_DDOT":0},{"OBJECT_NAME":"IRIDIUM 136","OBJECT_ID":"2017-061H","EPOCH":"2026-03-02T12:11:06.661536","MEAN_MOTION":14.3421792,"ECCENTRICITY":0.00022014,"INCLINATION":86.3908,"RA_OF_ASC_NODE":69.8557,"ARG_OF_PERICENTER":87.5555,"MEAN_ANOMALY":272.5893,"EPHEMERIS_TYPE":0,"CLASSIFICATION_TYPE":"U","NORAD_CAT_ID":42962,"ELEMENT_SET_NO":999,"REV_AT_EPOCH":43954,"BSTAR":8.885287e-6,"MEAN_MOTION_DOT":4.5e-7,"MEAN_MOTION_DDOT":0},{"OBJECT_NAME":"IRIDIUM 139","OBJECT_ID":"2017-061J","EPOCH":"2026-03-02T12:20:14.659584","MEAN_MOTION":14.34217654,"ECCENTRICITY":0.00019965,"INCLINATION":86.3911,"RA_OF_ASC_NODE":69.9134,"ARG_OF_PERICENTER":90.7028,"MEAN_ANOMALY":269.4397,"EPHEMERIS_TYPE":0,"CLASSIFICATION_TYPE":"U","NORAD_CAT_ID":42963,"ELEMENT_SET_NO":999,"REV_AT_EPOCH":43955,"BSTAR":1.34656e-7,"MEAN_MOTION_DOT":2.0e-7,"MEAN_MOTION_DDOT":0},{"OBJECT_NAME":"IRIDIUM 125","OBJECT_ID":"2017-061K","EPOCH":"2026-03-02T13:42:26.607456","MEAN_MOTION":14.34217967,"ECCENTRICITY":0.0002087,"INCLINATION":86.3911,"RA_OF_ASC_NODE":69.9487,"ARG_OF_PERICENTER":75.0053,"MEAN_ANOMALY":285.1374,"EPHEMERIS_TYPE":0,"CLASSIFICATION_TYPE":"U","NORAD_CAT_ID":42964,"ELEMENT_SET_NO":999,"REV_AT_EPOCH":43957,"BSTAR":1.7466e-5,"MEAN_MOTION_DOT":6.9e-7,"MEAN_MOTION_DDOT":0},{"OBJECT_NAME":"IRIDIUM 135","OBJECT_ID":"2017-083A","EPOCH":"2026-03-02T18:06:35.602272","MEAN_MOTION":14.34217226,"ECCENTRICITY":0.0002183,"INCLINATION":86.4016,"RA_OF_ASC_NODE":6.4889,"ARG_OF_PERICENTER":85.9933,"MEAN_ANOMALY":274.1513,"EPHEMERIS_TYPE":0,"CLASSIFICATION_TYPE":"U","NORAD_CAT_ID":43070,"ELEMENT_SET_NO":999,"REV_AT_EPOCH":42889,"BSTAR":0.00011879,"MEAN_MOTION_DOT":3.52e-6,"MEAN_MOTION_DDOT":0},{"OBJECT_NAME":"IRIDIUM 138","OBJECT_ID":"2017-083B","EPOCH":"2026-03-02T18:43:07.195296","MEAN_MOTION":14.34217846,"ECCENTRICITY":0.0002411,"INCLINATION":86.4028,"RA_OF_ASC_NODE":6.1576,"ARG_OF_PERICENTER":77.7543,"MEAN_ANOMALY":282.3923,"EPHEMERIS_TYPE":0,"CLASSIFICATION_TYPE":"U","NORAD_CAT_ID":43071,"ELEMENT_SET_NO":999,"REV_AT_EPOCH":42888,"BSTAR":5.9257e-6,"MEAN_MOTION_DOT":3.6e-7,"MEAN_MOTION_DDOT":0},{"OBJECT_NAME":"IRIDIUM 116","OBJECT_ID":"2017-083C","EPOCH":"2026-03-02T19:37:55.163712","MEAN_MOTION":14.34217814,"ECCENTRICITY":0.0002035,"INCLINATION":86.4013,"RA_OF_ASC_NODE":6.4495,"ARG_OF_PERICENTER":94.1374,"MEAN_ANOMALY":266.0054,"EPHEMERIS_TYPE":0,"CLASSIFICATION_TYPE":"U","NORAD_CAT_ID":43072,"ELEMENT_SET_NO":999,"REV_AT_EPOCH":42892,"BSTAR":9.7197e-6,"MEAN_MOTION_DOT":4.7e-7,"MEAN_MOTION_DDOT":0},{"OBJECT_NAME":"IRIDIUM 130","OBJECT_ID":"2017-083D","EPOCH":"2026-03-02T18:52:15.078432","MEAN_MOTION":14.3421837,"ECCENTRICITY":0.0001911,"INCLINATION":86.402,"RA_OF_ASC_NODE":6.7277,"ARG_OF_PERICENTER":88.0373,"MEAN_ANOMALY":272.1042,"EPHEMERIS_TYPE":0,"CLASSIFICATION_TYPE":"U","NORAD_CAT_ID":43073,"ELEMENT_SET_NO":999,"REV_AT_EPOCH":42886,"BSTAR":5.8173e-5,"MEAN_MOTION_DOT":1.83e-6,"MEAN_MOTION_DDOT":0}]
